NORAD_CAT_ID,OBJECT_NAME,OBJECT_TYPE,EPOCH,MEAN_MOTION,ECCENTRICITY,INCLINATION,RA_OF_ASC_NODE,ARG_OF_PERICENTER,MEAN_ANOMALY,BSTAR,MEAN_MOTION_DOT,MEAN_MOTION_DDOT,TLE_LINE0,TLE_LINE1,TLE_LINE2,SEMIMAJOR_AXIS,PERIOD,APOGEE,PERIGEE,DECAYED
52662.0,STARLINK-4044,PAYLOAD,2022-08-24 22:00:00,15.08836936,0.0002254,53.2162,197.6084,60.0658,199.0496,0.00038834,5.897e-05,0.0,0 STARLINK-4044,1 52662U 22053G   22236.91667824  .00005897  00000-0  38834-3 0  9999,2 52662  53.2162 197.6084 0002254  60.0658 199.0496 15.08836936 15873,6917.89,95.438,541.314,538.195,0.0
52662.0,STARLINK-4044,PAYLOAD,2022-08-25 14:00:01,15.08849314,0.0002343999999999,53.2161,194.6195,57.066,225.226,-0.0019213,-0.00030745,0.0,0 STARLINK-4044,1 52662U 22053G   22237.58334491 -.00030745  00000-0 -19213-2 0  9995,2 52662  53.2161 194.6195 0002344  57.0660 225.2260 15.08849314  1309,6917.852,95.437,541.3380000000002,538.095,0.0
52662.0,STARLINK-4044,PAYLOAD,2022-08-25 22:00:00,15.08846751,0.0002343,53.2163,193.1227,61.6447,232.2393,0.00010293,1.35e-05,0.0,0 STARLINK-4044,1 52662U 22053G   22237.91667824  .00001350  00000-0  10293-3 0  9999,2 52662  53.2163 193.1227 0002343  61.6447 232.2393 15.08846751  1301,6917.86,95.437,541.346,538.104,0.0
52662.0,STARLINK-4044,PAYLOAD,2022-08-26 06:00:00,15.08829059,0.0002519,53.2164,191.6281,56.7266,248.7658,0.0017422999999999,0.00027542,0.0,0 STARLINK-4044,1 52662U 22053G   22238.25001157  .00027542  00000-0  17423-2 0  9990,2 52662  53.2164 191.6281 0002519  56.7266 248.7658 15.08829059 16072,6917.9140000000025,95.438,541.521,538.036,0.0
52662.0,STARLINK-4044,PAYLOAD,2022-08-26 14:00:01,15.08855322,0.0002416,53.2164,190.1303,58.6201,258.5266,-0.0014792,-0.00023764,0.0,0 STARLINK-4044,1 52662U 22053G   22238.58335648 -.00023764  00000-0 -14792-2 0  9991,2 52662  53.2164 190.1303 0002416  58.6201 258.5266 15.08855322  1303,6917.834,95.437,541.37,538.0269999999998,0.0
52662.0,STARLINK-4044,PAYLOAD,2022-08-26 20:00:01,15.08848046,0.0002387999999999,53.2164,189.0074,62.428,173.3606,0.00051542,7.926e-05,0.0,0 STARLINK-4044,1 52662U 22053G   22238.83334491  .00007926  00000-0  51542-3 0  9999,2 52662  53.2164 189.0074 0002388  62.4280 173.3606 15.08848046 16160,6917.856,95.437,541.373,538.069,0.0
52662.0,STARLINK-4044,PAYLOAD,2022-08-26 22:00:00,15.08871204,0.0002394,53.2166,188.6337,62.0262,266.6573,-0.0025877,-0.00041273,0.0,0 STARLINK-4044,1 52662U 22053G   22238.91667824 -.00041273  00000-0 -25877-2 0  9993,2 52662  53.2166 188.6337 0002394  62.0262 266.6573 15.08871204  1303,6917.785,95.436,541.306,537.994,0.0
52662.0,STARLINK-4044,PAYLOAD,2022-08-27 14:00:01,15.08838313,0.0002411,53.217,185.6413,58.838,293.0442,-0.00086686,-0.00014058,0.0,0 STARLINK-4044,1 52662U 22053G   22239.58334491 -.00014058  00000-0 -86686-3 0  9995,2 52662  53.2170 185.6413 0002411  58.8380 293.0442 15.08838313  1307,6917.886,95.438,541.418,538.0830000000002,0.0
52662.0,STARLINK-4044,PAYLOAD,2022-08-27 22:00:00,15.08849176,0.0002440999999999,53.2173,184.1448,61.8811,301.5827,-0.00042255,-7.009e-05,0.0,0 STARLINK-4044,1 52662U 22053G   22239.91667824 -.00007009  00000-0 -42255-3 0  9993,2 52662  53.2173 184.1448 0002441  61.8811 301.5827 15.08849176  1309,6917.852,95.437,541.406,538.029,0.0
52662.0,STARLINK-4044,PAYLOAD,2022-08-28 04:00:00,15.08838926,0.0002581,53.2173,183.0239,57.9398,224.2326,0.00072451,0.00011261,0.0,0 STARLINK-4044,1 52662U 22053G   22240.16667824  .00011261  00000-0  72451-3 0  9996,2 52662  53.2173 183.0239 0002581  57.9398 224.2326 15.08838926 16364,6917.884,95.438,541.534,537.9630000000002,0.0
52662.0,STARLINK-4044,PAYLOAD,2022-08-28 14:00:01,15.08855401,0.0002420999999999,53.2177,181.1522,59.8054,326.872,-0.0027108,-0.00043193,0.0,0 STARLINK-4044,1 52662U 22053G   22240.58334491 -.00043193  00000-0 -27108-2 0  9992,2 52662  53.2177 181.1522 0002421  59.8054 326.8720 15.08855401  1307,6917.833000000001,95.437,541.373,538.024,0.0
52662.0,STARLINK-4044,PAYLOAD,2022-08-28 20:00:01,15.08825212,0.0002394,53.2179,180.0295,62.43,242.9449,0.00168,0.0002654,0.0,0 STARLINK-4044,1 52662U 22053G   22240.83334491  .00026540  00000-0  16800-2 0  9992,2 52662  53.2179 180.0295 0002394  62.4300 242.9449 15.08825212 16463,6917.926,95.438,541.447,538.134,0.0
52662.0,STARLINK-4044,PAYLOAD,2022-08-28 22:00:00,15.08845355,0.000242,53.2179,179.65599999999995,61.5752,336.6903,-0.0006611,-0.00010796,0.0,0 STARLINK-4044,1 52662U 22053G   22240.91667824 -.00010796  00000-0 -66110-3 0  9998,2 52662  53.2179 179.6560 0002420  61.5752 336.6903 15.08845355  1306,6917.864000000001,95.437,541.403,538.055,0.0
52662.0,STARLINK-4044,PAYLOAD,2022-08-29 14:00:01,15.08826348,0.0002348,53.2181,176.6633,60.3861,1.0683,-0.00108,-0.0001743,0.0,0 STARLINK-4044,1 52662U 22053G   22241.58334491 -.00017430  00000-0 -10800-2 0  9999,2 52662  53.2181 176.6633 0002348  60.3861   1.0683 15.08826348 16589,6917.922,95.438,541.411,538.163,0.0
52662.0,STARLINK-4044,PAYLOAD,2022-08-29 22:00:00,15.08838848,0.0002369,53.2182,175.1673,61.7403,11.2819,-0.00093986,-0.00015215,0.0,0 STARLINK-4044,1 52662U 22053G   22241.91667824 -.00015215  00000-0 -93986-3 0  9991,2 52662  53.2182 175.1673 0002369  61.7403  11.2819 15.08838848  1304,6917.884,95.438,541.388,538.11,0.0
52662.0,STARLINK-4044,PAYLOAD,2022-08-30 06:00:00,15.0880426,0.0002473,53.218,173.6725,57.2477,27.3617,0.0030771,0.00048978,0.0,0 STARLINK-4044,1 52662U 22053G   22242.25001157  .00048978  00000-0  30771-2 0  9992,2 52662  53.2180 173.6725 0002473  57.2477  27.3617 15.08804260 16682,6917.99,95.44,541.565,538.144,0.0
52662.0,STARLINK-4044,PAYLOAD,2022-08-30 14:00:01,15.08826949,0.0002334999999999,53.2181,172.1746,62.0898,34.1005,0.001081,0.00016952,0.0,0 STARLINK-4044,1 52662U 22053G   22242.58334491  .00016952  00000-0  10810-2 0  9997,2 52662  53.2181 172.1746 0002335  62.0898  34.1005 15.08826949  1306,6917.92,95.438,541.401,538.17,0.0
52662.0,STARLINK-4044,PAYLOAD,2022-08-30 22:00:00,15.0885815,0.0002391,53.218,170.6787,63.4758,44.2949,-0.0012845,-0.00020684,0.0,0 STARLINK-4044,1 52662U 22053G   22242.91667824 -.00020684  00000-0 -12845-2 0  9992,2 52662  53.2180 170.6787 0002391  63.4758  44.2949 15.08858150 16781,6917.825,95.436,541.344,538.036,0.0
52662.0,STARLINK-4044,PAYLOAD,2022-08-31 14:00:01,15.08838858,0.0002255999999999,53.2175,167.6857,63.8092,67.182,-0.00082744,-0.00013433,0.0,0 STARLINK-4044,1 52662U 22053G   22243.58334491 -.00013433  00000-0 -82744-3 0  9997,2 52662  53.2175 167.6857 0002256  63.8092  67.1820 15.08838858  1301,6917.884,95.438,541.31,538.188,0.0
52662.0,STARLINK-4044,PAYLOAD,2022-08-31 20:00:01,15.08836754,0.0002262,53.2176,166.5635,65.7649,343.9153,0.00033242,5.006e-05,0.0,0 STARLINK-4044,1 52662U 22053G   22243.83334491  .00005006  00000-0  33242-3 0  9999,2 52662  53.2176 166.5635 0002262  65.7649 343.9153 15.08836754 16921,6917.89,95.438,541.32,538.19,0.0
52662.0,STARLINK-4044,PAYLOAD,2022-08-31 22:00:00,15.08848839,0.0002290999999999,53.2175,166.1899,64.5263,78.04899999999998,-0.0014428,-0.00023183,0.0,0 STARLINK-4044,1 52662U 22053G   22243.91667824 -.00023183  00000-0 -14428-2 0  9999,2 52662  53.2175 166.1899 0002291  64.5263  78.0490 15.08848839  1302,6917.853,95.437,541.303,538.133,0.0
52662.0,STARLINK-4044,PAYLOAD,2022-09-01 14:00:01,15.08833904,0.0002233,53.2168,163.1967,65.3128,100.5153,0.00085362,0.00013321,0.0,0 STARLINK-4044,1 52662U 22053G   22244.58335648  .00013321  00000-0  85362-3 0  9996,2 52662  53.2168 163.1967 0002233  65.3128 100.5153 15.08833904  1306,6917.899,95.438,541.309,538.219,0.0
52662.0,STARLINK-4044,PAYLOAD,2022-09-01 22:00:00,15.08849975,0.0002255999999999,53.2168,161.7011,65.6101,111.7485,-0.0025521999999999,-0.0004068999999999,0.0,0 STARLINK-4044,1 52662U 22053G   22244.91667824 -.00040690  00000-0 -25522-2 0  9999,2 52662  53.2168 161.7011 0002256  65.6101 111.7485 15.08849975 17088,6917.85,95.437,541.276,538.154,0.0
52662.0,STARLINK-4044,PAYLOAD,2022-09-02 12:00:02,15.08830574,0.0002241,53.2163,159.082,65.1665,42.5224,-0.00041241,-6.844e-05,0.0,0 STARLINK-4044,1 52662U 22053G   22245.50002315 -.00006844  00000-0 -41241-3 0  9993,2 52662  53.2163 159.0820 0002241  65.1665  42.5224 15.08830574 17172,6917.909000000002,95.438,541.325,538.224,0.0
52662.0,STARLINK-4044,PAYLOAD,2022-09-02 14:00:01,15.08812284,0.0002215,53.2162,158.7076,65.9587,134.5696,0.0021873,0.00034669,0.0,0 STARLINK-4044,1 52662U 22053G   22245.58334491  .00034669  00000-0  21873-2 0  9996,2 52662  53.2162 158.7076 0002215  65.9587 134.5696 15.08812284  1303,6917.965,95.439,541.362,538.298,0.0
52662.0,STARLINK-4044,PAYLOAD,2022-09-02 22:00:01,15.08849851,0.0002320999999999,53.2163,157.2121,66.26100000000001,145.9044,-0.0014536,-0.00023355,0.0,0 STARLINK-4044,1 52662U 22053G   22245.91668981 -.00023355  00000-0 -14536-2 0  9997,2 52662  53.2163 157.2121 0002321  66.2610 145.9044 15.08849851  1301,6917.85,95.437,541.321,538.11,0.0
52662.0,STARLINK-4044,PAYLOAD,2022-09-03 06:00:00,15.08829129,0.0002381,53.216,155.7166,61.9598,161.743,0.002201,0.00034905,0.0,0 STARLINK-4044,1 52662U 22053G   22246.25001157  .00034905  00000-0  22010-2 0  9998,2 52662  53.2160 155.7166 0002381  61.9598 161.7430 15.08829129 17288,6917.9140000000025,95.438,541.4259999999998,538.131,0.0
52662.0,STARLINK-4044,PAYLOAD,2022-09-03 14:00:01,15.08836406,0.0002265,53.2162,154.2183,66.9263,168.3821,0.0014125,0.00022262,0.0,0 STARLINK-4044,1 52662U 22053G   22246.58334491  .00022262  00000-0  14125-2 0  9995,2 52662  53.2162 154.2183 0002265  66.9263 168.3821 15.08836406  1307,6917.891,95.438,541.323,538.189,0.0
52662.0,STARLINK-4044,PAYLOAD,2022-09-03 20:00:01,15.08865097,0.000231,53.2164,153.0965,67.741,86.2631,-0.0028601,-0.00045552,0.0,0 STARLINK-4044,1 52662U 22053G   22246.83334491 -.00045552  00000-0 -28601-2 0  9996,2 52662  53.2164 153.0965 0002310  67.7410  86.2631 15.08865097 17377,6917.804,95.436,541.2669999999998,538.071,0.0
